COMMENT,ORIGINATOR,NORAD_CAT_ID,OBJECT_NAME,OBJECT_TYPE,CLASSIFICATION_TYPE,INTLDES,EPOCH,EPOCH_MICROSECONDS,MEAN_MOTION,ECCENTRICITY,INCLINATION,RA_OF_ASC_NODE,ARG_OF_PERICENTER,MEAN_ANOMALY,EPHEMERIS_TYPE,ELEMENT_SET_NO,REV_AT_EPOCH,BSTAR,MEAN_MOTION_DOT,MEAN_MOTION_DDOT,FILE,TLE_LINE0,TLE_LINE1,TLE_LINE2,OBJECT_ID,OBJECT_NUMBER,SEMIMAJOR_AXIS,PERIOD,APOGEE,PERIGEE,DECAYED,date
GENERATED VIA SPACETRACK.ORG API,18 SPCS,48888,SPACEBEE-103,PAYLOAD,U,21059K,2023/1/26 14:38,741696,15.21923389,0.000828,97.5769,161.3174,45.6443,314.5469,0,999,8779,0.0011944,0.0002724,0,3762005,0 SPACEBEE-103,1 48888U 21059K   23026.60993914  .00027240  00000-0  11944-2 0  9993,2 48888  97.5769 161.3174 0008280  45.6443 314.5469 15.21923389 87794,2021-059K,48888,6878.176,94.617,505.737,494.346,0,2023/2/16
GENERATED VIA SPACETRACK.ORG API,18 SPCS,48888,SPACEBEE-103,PAYLOAD,U,21059K,2023/1/27 7:59,137184,15.21956083,0.0008275,97.5768,162.0461,42.6651,317.5226,0,999,8790,0.00098836,0.00022536,0,3762956,0 SPACEBEE-103,1 48888U 21059K   23027.33316131  .00022536  00000-0  98836-3 0  9993,2 48888  97.5768 162.0461 0008275  42.6651 317.5226 15.21956083 87906,2021-059K,48888,6878.078,94.615,505.635,494.251,0,2023/2/17
GENERATED VIA SPACETRACK.ORG API,18 SPCS,48888,SPACEBEE-103,PAYLOAD,U,21059K,2023/1/27 7:59,137184,15.21956083,0.0008275,97.5768,162.0461,42.6651,317.5226,0,999,8790,0.00098836,0.00022536,0,3763132,0 SPACEBEE-103,1 48888U 21059K   23027.33316131  .00022536  00000-0  98836-3 0  9993,2 48888  97.5768 162.0461 0008275  42.6651 317.5226 15.21956083 87906,2021-059K,48888,6878.078,94.615,505.635,494.251,0,2023/2/18
GENERATED VIA SPACETRACK.ORG API,18 SPCS,48888,SPACEBEE-103,PAYLOAD,U,21059K,2023/1/27 20:37,917536,15.21981334,0.0008219,97.5768,162.5757,40.8716,319.3134,0,999,8798,0.0010081,0.00023006,0,3763218,0 SPACEBEE-103,1 48888U 21059K   23027.85913099  .00023006  00000-0  10081-2 0  9994,2 48888  97.5768 162.5757 0008219  40.8716 319.3134 15.21981334 87982,2021-059K,48888,6878.002,94.614,505.52,494.214,0,2023/2/19
GENERATED VIA SPACETRACK.ORG API,18 SPCS,48888,SPACEBEE-103,PAYLOAD,U,21059K,2023/1/28 7:39,630912,15.22002611,0.000827,97.5768,163.0396,39.281,320.9024,0,999,8805,0.0010174,0.00023234,0,3763924,0 SPACEBEE-103,1 48888U 21059K   23028.31934758  .00023234  00000-0  10174-2 0  9997,2 48888  97.5768 163.0396 0008270  39.2810 320.9024 15.22002611 88059,2021-059K,48888,6877.938,94.612,505.491,494.115,0,2023/2/20
GENERATED VIA SPACETRACK.ORG API,18 SPCS,48888,SPACEBEE-103,PAYLOAD,U,21059K,2023/1/28 21:51,367488,15.22025586,0.0008234,97.5769,163.6356,37.7352,322.446,0,999,8814,0.00082053,0.00018725,0,3764201,0 SPACEBEE-103,1 48888U 21059K   23028.91104592  .00018725  00000-0  82053-3 0  9993,2 48888  97.5769 163.6356 0008234  37.7352 322.4460 15.22025586 88143,2021-059K,48888,6877.869,94.611,505.397,494.07,0,2023/2/21
GENERATED VIA SPACETRACK.ORG API,18 SPCS,48888,SPACEBEE-103,PAYLOAD,U,21059K,2023/1/29 7:19,713216,15.22042619,0.0008257,97.5767,164.0332,36.4582,323.7215,0,999,8820,0.00085751,0.00019585,0,3764466,0 SPACEBEE-103,1 48888U 21059K   23029.30550594  .00019585  00000-0  85751-3 0  9997,2 48888  97.5767 164.0332 0008257  36.4582 323.7215 15.22042619 88201,2021-059K,48888,6877.817,94.61,505.361,494.003,0,2023/2/22
GENERATED VIA SPACETRACK.ORG API,18 SPCS,48888,SPACEBEE-103,PAYLOAD,U,21059K,2023/1/29 19:57,6976,15.22061344,0.0008198,97.5768,164.5628,35.0683,325.1091,0,999,8828,0.00071895,0.0001641,0,3765015,0 SPACEBEE-103,1 48888U 21059K   23029.83144684  .00016410  00000-0  71895-3 0  9992,2 48888  97.5768 164.5628 0008198  35.0683 325.1091 15.22061344 88288,2021-059K,48888,6877.761,94.609,505.264,493.987,0,2023/2/23
GENERATED VIA SPACETRACK.ORG API,18 SPCS,48888,SPACEBEE-103,PAYLOAD,U,21059K,2023/1/30 8:34,713216,15.22080227,0.0008221,97.5767,165.0929,33.0577,327.1171,0,999,8836,0.00074072,0.0001692,0,3765322,0 SPACEBEE-103,1 48888U 21059K   23030.35738094  .00016920  00000-0  74072-3 0  9991,2 48888  97.5767 165.0929 0008221  33.0577 327.1171 15.22080227 88365,2021-059K,48888,6877.704,94.607,505.223,493.915,0,2023/2/24
GENERATED VIA SPACETRACK.ORG API,18 SPCS,48888,SPACEBEE-103,PAYLOAD,U,21059K,2023/1/30 8:34,713216,15.22080227,0.0008221,97.5767,165.0929,33.0577,327.1171,0,999,8836,0.00074072,0.0001692,0,3765576,0 SPACEBEE-103,1 48888U 21059K   23030.35738094  .00016920  00000-0  74072-3 0  9991,2 48888  97.5767 165.0929 0008221  33.0577 327.1171 15.22080227 88365,2021-059K,48888,6877.704,94.607,505.223,493.915,0,2023/2/25
GENERATED VIA SPACETRACK.ORG API,18 SPCS,48888,SPACEBEE-103,PAYLOAD,U,21059K,2023/1/31 14:33,222976,15.22125957,0.0008154,97.5764,166.3516,28.6682,331.5001,0,999,8855,0.00083361,0.00019082,0,3766406,0 SPACEBEE-103,1 48888U 21059K   23031.60644934  .00019082  00000-0  83361-3 0  9992,2 48888  97.5764 166.3516 0008154  28.6682 331.5001 15.22125957 88552,2021-059K,48888,6877.566,94.605,505.039,493.823,0,2023/2/26
GENERATED VIA SPACETRACK.ORG API,18 SPCS,48888,SPACEBEE-103,PAYLOAD,U,21059K,2023/1/31 14:33,222976,15.22125957,0.0008154,97.5764,166.3516,28.6682,331.5001,0,999,8855,0.00083361,0.00019082,0,3766475,0 SPACEBEE-103,1 48888U 21059K   23031.60644934  .00019082  00000-0  83361-3 0  9992,2 48888  97.5764 166.3516 0008154  28.6682 331.5001 15.22125957 88552,2021-059K,48888,6877.566,94.605,505.039,493.823,0,2023/2/27
GENERATED VIA SPACETRACK.ORG API,18 SPCS,48888,SPACEBEE-103,PAYLOAD,U,21059K,2023/2/1 7:54,406144,15.22154455,0.0008102,97.5765,167.0803,25.9076,334.2564,0,999,8866,0.00085933,0.00019691,0,3767525,0 SPACEBEE-103,1 48888U 21059K   23032.32957646  .00019691  00000-0  85933-3 0  9992,2 48888  97.5765 167.0803 0008102  25.9076 334.2564 15.22154455 88661,2021-059K,48888,6877.48,94.603,504.918,493.773,0,2023/2/28
GENERATED VIA SPACETRACK.ORG API,18 SPCS,48888,SPACEBEE-103,PAYLOAD,U,21059K,2023/2/2 2:50,56512,15.22184951,0.0008102,97.5768,167.8752,23.3924,336.7679,0,999,8878,0.00082602,0.0001894,0,3768156,0 SPACEBEE-103,1 48888U 21059K   23033.11842658  .00018940  00000-0  82602-3 0  9992,2 48888  97.5768 167.8752 0008102  23.3924 336.7679 15.22184951 88780,2021-059K,48888,6877.389,94.601,504.826,493.681,0,2023/3/1
GENERATED VIA SPACETRACK.ORG API,18 SPCS,48888,SPACEBEE-103,PAYLOAD,U,21059K,2023/2/2 7:34,921024,15.22199426,0.0008098,97.5769,168.074,22.4726,337.6863,0,999,8881,0.0010151,0.00023315,0,3768366,0 SPACEBEE-103,1 48888U 21059K   23033.31563566  .00023315  00000-0  10151-2 0  9993,2 48888  97.5769 168.0740 0008098  22.4726 337.6863 15.22199426 88817,2021-059K,48888,6877.345,94.6,504.779,493.641,0,2023/3/2
GENERATED VIA SPACETRACK.ORG API,18 SPCS,48888,SPACEBEE-103,PAYLOAD,U,21059K,2023/2/2 7:34,921024,15.22199426,0.0008098,97.5769,168.074,22.4726,337.6863,0,999,8881,0.0010151,0.00023315,0,3769045,0 SPACEBEE-103,1 48888U 21059K   23033.31563566  .00023315  00000-0  10151-2 0  9993,2 48888  97.5769 168.0740 0008098  22.4726 337.6863 15.22199426 88817,2021-059K,48888,6877.345,94.6,504.779,493.641,0,2023/3/3
GENERATED VIA SPACETRACK.ORG API,18 SPCS,48888,SPACEBEE-103,PAYLOAD,U,21059K,2023/2/3 8:49,563904,15.22240196,0.0008078,97.5773,169.1341,19.0767,341.077,0,999,8897,0.0008607,0.00019772,0,3770213,0 SPACEBEE-103,1 48888U 21059K   23034.36740236  .00019772  00000-0  86070-3 0  9996,2 48888  97.5773 169.1341 0008078  19.0767 341.0770 15.22240196 88970,2021-059K,48888,6877.222,94.597,504.643,493.532,0,2023/3/4
GENERATED VIA SPACETRACK.ORG API,18 SPCS,48888,SPACEBEE-103,PAYLOAD,U,21059K,2023/2/3 8:49,563904,15.22240196,0.0008078,97.5773,169.1341,19.0767,341.077,0,999,8897,0.0008607,0.00019772,0,3770323,0 SPACEBEE-103,1 48888U 21059K   23034.36740236  .00019772  00000-0  86070-3 0  9996,2 48888  97.5773 169.1341 0008078  19.0767 341.0770 15.22240196 88970,2021-059K,48888,6877.222,94.597,504.643,493.532,0,2023/3/5
GENERATED VIA SPACETRACK.ORG API,18 SPCS,48888,SPACEBEE-103,PAYLOAD,U,21059K,2023/2/4 8:28,201504,15.2228494,0.0008053,97.5774,170.1281,15.8123,344.3363,0,999,8912,0.00097304,0.000224,0,3771952,0 SPACEBEE-103,1 48888U 21059K   23035.35340511  .00022400  00000-0  97304-3 0  9992,2 48888  97.5774 170.1281 0008053  15.8123 344.3363 15.22284940 89126,2021-059K,48888,6877.087,94.595,504.49,493.414,0,2023/3/6
GENERATED VIA SPACETRACK.ORG API,18 SPCS,48888,SPACEBEE-103,PAYLOAD,U,21059K,2023/2/4 21:06,172000,15.22307023,0.0007963,97.5777,170.6578,13.7976,346.3476,0,999,8920,0.00081997,0.00018867,0,3772349,0 SPACEBEE-103,1 48888U 21059K   23035.87926125  .00018867  00000-0  81997-3 0  9993,2 48888  97.5777 170.6578 0007963  13.7976 346.3476 15.22307023 89209,2021-059K,48888,6877.021,94.593,504.362,493.41,0,2023/3/7
GENERATED VIA SPACETRACK.ORG API,18 SPCS,48888,SPACEBEE-103,PAYLOAD,U,21059K,2023/2/4 21:06,172000,15.22307023,0.0007963,97.5777,170.6578,13.7976,346.3476,0,999,8920,0.00081997,0.00018867,0,3772514,0 SPACEBEE-103,1 48888U 21059K   23035.87926125  .00018867  00000-0  81997-3 0  9993,2 48888  97.5777 170.6578 0007963  13.7976 346.3476 15.22307023 89209,2021-059K,48888,6877.021,94.593,504.362,493.41,0,2023/3/8
GENERATED VIA SPACETRACK.ORG API,18 SPCS,48888,SPACEBEE-103,PAYLOAD,U,21059K,2023/2/5 14:27,836640,15.2233744,0.0007942,97.5776,171.3864,11.1506,348.9905,0,999,8931,0.00089109,0.00020533,0,3773728,0 SPACEBEE-103,1 48888U 21059K   23036.60230135  .00020533  00000-0  89109-3 0  9990,2 48888  97.5776 171.3864 0007942  11.1506 348.9905 15.22337440 89315,2021-059K,48888,6876.929,94.591,504.256,493.333,0,2023/3/9
GENERATED VIA SPACETRACK.ORG API,18 SPCS,48888,SPACEBEE-103,PAYLOAD,U,21059K,2023/2/5 22:20,176768,15.22352717,0.0007945,97.5778,171.7178,10.008,350.1313,0,999,8936,0.00093029,0.00021452,0,3774172,0 SPACEBEE-103,1 48888U 21059K   23036.93095112  .00021452  00000-0  93029-3 0  9997,2 48888  97.5778 171.7178 0007945  10.0080 350.1313 15.22352717 89364,2021-059K,48888,6876.883,94.59,504.212,493.285,0,2023/3/10
